[
    {
        "Altitude(m)": 703595.9088546236,
        "Argument of Periapsis(deg)": 0.004556048474650827,
        "Eccentricity": 0.0,
        "Inclination(deg)": 45.0,
        "Latitude(deg)": 25.48533088195133,
        "Longitude(deg)": -151.9902901723725,
        "Mean Anomaly(deg)": 37.3405866589923,
        "RAAN(deg)": 279.99569922341675,
        "Satellite Name": "Constellation 1 1234",
        "Satellite Number": 1234,
        "Semi-Major Axis(m)": 7083131.272910544,
        "Time(s)": 76
    },
    {
        "Altitude(m)": 703600.8296215141,
        "Argument of Periapsis(deg)": 0.004615996480896233,
        "Eccentricity": 0.0,
        "Inclination(deg)": 45.0,
        "Latitude(deg)": 25.523318088642533,
        "Longitude(deg)": -151.94183257751504,
        "Mean Anomaly(deg)": 37.40128779924218,
        "RAAN(deg)": 279.99564263425117,
        "Satellite Name": "Constellation 1 1234",
        "Satellite Number": 1234,
        "Semi-Major Axis(m)": 7083131.272910544,
        "Time(s)": 77
    },
    {
        "Altitude(m)": 703605.7594168781,
        "Argument of Periapsis(deg)": 0.004675944487141638,
        "Eccentricity": 0.0,
        "Inclination(deg)": 45.0,
        "Latitude(deg)": 25.561286244465474,
        "Longitude(deg)": -151.89334189215228,
        "Mean Anomaly(deg)": 37.46198893949212,
        "RAAN(deg)": 279.99558604508553,
        "Satellite Name": "Constellation 1 1234",
        "Satellite Number": 1234,
        "Semi-Major Axis(m)": 7083131.272910544,
        "Time(s)": 78
    },
    {
        "Altitude(m)": 703610.698203373,
        "Argument of Periapsis(deg)": 0.004735892493387044,
        "Eccentricity": 0.0,
        "Inclination(deg)": 45.0,
        "Latitude(deg)": 25.599235305428195,
        "Longitude(deg)": -151.84481805561998,
        "Mean Anomaly(deg)": 37.52269007974201,
        "RAAN(deg)": 279.99552945592,
        "Satellite Name": "Constellation 1 1234",
        "Satellite Number": 1234,
        "Semi-Major Axis(m)": 7083131.272910544,
        "Time(s)": 79
    },
    {
        "Altitude(m)": 703615.6459436318,
        "Argument of Periapsis(deg)": 0.004795840499632449,
        "Eccentricity": 0.0,
        "Inclination(deg)": 45.0,
        "Latitude(deg)": 25.63716522747439,
        "Longitude(deg)": -151.7962610072529,
        "Mean Anomaly(deg)": 37.583391219991896,
        "RAAN(deg)": 279.9954728667544,
        "Satellite Name": "Constellation 1 1234",
        "Satellite Number": 1234,
        "Semi-Major Axis(m)": 7083131.272910544,
        "Time(s)": 80
    },
    {
        "Altitude(m)": 703620.6026002602,
        "Argument of Periapsis(deg)": 0.004855788505877855,
        "Eccentricity": 0.0,
        "Inclination(deg)": 45.0,
        "Latitude(deg)": 25.675075966483274,
        "Longitude(deg)": -151.74767068638513,
        "Mean Anomaly(deg)": 37.64409236024178,
        "RAAN(deg)": 279.99541627758884,
        "Satellite Name": "Constellation 1 1234",
        "Satellite Number": 1234,
        "Semi-Major Axis(m)": 7083131.272910544,
        "Time(s)": 81
    },
    {
        "Altitude(m)": 703625.5681358344,
        "Argument of Periapsis(deg)": 0.00491573651212326,
        "Eccentricity": 0.0,
        "Inclination(deg)": 45.0,
        "Latitude(deg)": 25.71296747826978,
        "Longitude(deg)": -151.69904720044715,
        "Mean Anomaly(deg)": 37.70479350049172,
        "RAAN(deg)": 279.9953596884233,
        "Satellite Name": "Constellation 1 1234",
        "Satellite Number": 1234,
        "Semi-Major Axis(m)": 7083131.272910544,
        "Time(s)": 82
    },
    {
        "Altitude(m)": 703630.5425129068,
        "Argument of Periapsis(deg)": 0.004975684518368666,
        "Eccentricity": 0.0,
        "Inclination(deg)": 45.0,
        "Latitude(deg)": 25.750839718583347,
        "Longitude(deg)": -151.6503901525785,
        "Mean Anomaly(deg)": 37.76549464074161,
        "RAAN(deg)": 279.9953030992577,
        "Satellite Name": "Constellation 1 1234",
        "Satellite Number": 1234,
        "Semi-Major Axis(m)": 7083131.272910544,
        "Time(s)": 83
    },
    {
        "Altitude(m)": 703635.525693995,
        "Argument of Periapsis(deg)": 0.005035632524614072,
        "Eccentricity": 0.0,
        "Inclination(deg)": 45.0,
        "Latitude(deg)": 25.788692643109503,
        "Longitude(deg)": -151.60169965020972,
        "Mean Anomaly(deg)": 37.82619578099149,
        "RAAN(deg)": 279.99524651009216,
        "Satellite Name": "Constellation 1 1234",
        "Satellite Number": 1234,
        "Semi-Major Axis(m)": 7083131.272910544,
        "Time(s)": 84
    },
    {
        "Altitude(m)": 703640.5176416032,
        "Argument of Periapsis(deg)": 0.0050955805308594785,
        "Eccentricity": 0.0,
        "Inclination(deg)": 45.0,
        "Latitude(deg)": 25.826526207468607,
        "Longitude(deg)": -151.5529756326752,
        "Mean Anomaly(deg)": 37.88689692124143,
        "RAAN(deg)": 279.9951899209266,
        "Satellite Name": "Constellation 1 1234",
        "Satellite Number": 1234,
        "Semi-Major Axis(m)": 7083131.272910544,
        "Time(s)": 85
    },
    {
        "Altitude(m)": 703645.5183181947,
        "Argument of Periapsis(deg)": 0.005155528537104883,
        "Eccentricity": 0.0,
        "Inclination(deg)": 45.0,
        "Latitude(deg)": 25.864340367216148,
        "Longitude(deg)": -151.5042180393102,
        "Mean Anomaly(deg)": 37.94759806149132,
        "RAAN(deg)": 279.995133331761,
        "Satellite Name": "Constellation 1 1234",
        "Satellite Number": 1234,
        "Semi-Major Axis(m)": 7083131.272910544,
        "Time(s)": 86
    },
    {
        "Altitude(m)": 703650.5276862157,
        "Argument of Periapsis(deg)": 0.0052154765433502885,
        "Eccentricity": 0.0,
        "Inclination(deg)": 45.0,
        "Latitude(deg)": 25.902135077842498,
        "Longitude(deg)": -151.4554268094509,
        "Mean Anomaly(deg)": 38.0082992017412,
        "RAAN(deg)": 279.9950767425955,
        "Satellite Name": "Constellation 1 1234",
        "Satellite Number": 1234,
        "Semi-Major Axis(m)": 7083131.272910544,
        "Time(s)": 87
    },
    {
        "Altitude(m)": 703655.5457080777,
        "Argument of Periapsis(deg)": 0.005275424549595694,
        "Eccentricity": 0.0,
        "Inclination(deg)": 45.0,
        "Latitude(deg)": 25.939910294772936,
        "Longitude(deg)": -151.4066018824356,
        "Mean Anomaly(deg)": 38.069000341991085,
        "RAAN(deg)": 279.99502015342983,
        "Satellite Name": "Constellation 1 1234",
        "Satellite Number": 1234,
        "Semi-Major Axis(m)": 7083131.272910544,
        "Time(s)": 88
    },
    {
        "Altitude(m)": 703660.5723461787,
        "Argument of Periapsis(deg)": 0.0053353725558411,
        "Eccentricity": 0.0,
        "Inclination(deg)": 45.0,
        "Latitude(deg)": 25.977665973367756,
        "Longitude(deg)": -151.3577433657011,
        "Mean Anomaly(deg)": 38.129701482241025,
        "RAAN(deg)": 279.9949635642643,
        "Satellite Name": "Constellation 1 1234",
        "Satellite Number": 1234,
        "Semi-Major Axis(m)": 7083131.272910544,
        "Time(s)": 89
    },
    {
        "Altitude(m)": 703665.6075628757,
        "Argument of Periapsis(deg)": 0.005395320562086505,
        "Eccentricity": 0.0,
        "Inclination(deg)": 45.0,
        "Latitude(deg)": 26.015402068921098,
        "Longitude(deg)": -151.30885086239581,
        "Mean Anomaly(deg)": 38.190402622490915,
        "RAAN(deg)": 279.99490697509873,
        "Satellite Name": "Constellation 1 1234",
        "Satellite Number": 1234,
        "Semi-Major Axis(m)": 7083131.272910544,
        "Time(s)": 90
    },
    {
        "Altitude(m)": 703670.6513205089,
        "Argument of Periapsis(deg)": 0.00545526856833191,
        "Eccentricity": 0.0,
        "Inclination(deg)": 45.0,
        "Latitude(deg)": 26.053118536662517,
        "Longitude(deg)": -151.2599244799616,
        "Mean Anomaly(deg)": 38.2511037627408,
        "RAAN(deg)": 279.99485038593315,
        "Satellite Name": "Constellation 1 1234",
        "Satellite Number": 1234,
        "Semi-Major Axis(m)": 7083131.272910544,
        "Time(s)": 91
    },
    {
        "Altitude(m)": 703675.7035813928,
        "Argument of Periapsis(deg)": 0.005515216574577317,
        "Eccentricity": 0.0,
        "Inclination(deg)": 45.0,
        "Latitude(deg)": 26.090815331755792,
        "Longitude(deg)": -151.21096415774633,
        "Mean Anomaly(deg)": 38.31180490299074,
        "RAAN(deg)": 279.9947937967676,
        "Satellite Name": "Constellation 1 1234",
        "Satellite Number": 1234,
        "Semi-Major Axis(m)": 7083131.272910544,
        "Time(s)": 92
    },
    {
        "Altitude(m)": 703680.7643078121,
        "Argument of Periapsis(deg)": 0.005575164580822722,
        "Eccentricity": 0.0,
        "Inclination(deg)": 45.0,
        "Latitude(deg)": 26.128492409299014,
        "Longitude(deg)": -151.1619698351016,
        "Mean Anomaly(deg)": 38.37250604324063,
        "RAAN(deg)": 279.99473720760204,
        "Satellite Name": "Constellation 1 1234",
        "Satellite Number": 1234,
        "Semi-Major Axis(m)": 7083131.272910544,
        "Time(s)": 93
    },
    {
        "Altitude(m)": 703685.8334620306,
        "Argument of Periapsis(deg)": 0.005635112587068129,
        "Eccentricity": 0.0,
        "Inclination(deg)": 45.0,
        "Latitude(deg)": 26.166149724324704,
        "Longitude(deg)": -151.11294145138217,
        "Mean Anomaly(deg)": 38.43320718349051,
        "RAAN(deg)": 279.99468061843646,
        "Satellite Name": "Constellation 1 1234",
        "Satellite Number": 1234,
        "Semi-Major Axis(m)": 7083131.272910544,
        "Time(s)": 94
    }
]